{
    "links": {
        "self": "http://www.neowsapp.com/rest/v1/neo/3726657?api_key=iIulBulltgU6a56xZRHN4H3l9WmuAYTsLGpBGhQ2"
    },
    "id": "3726657",
    "neo_reference_id": "3726657",
    "name": "(2015 QA9)",
    "designation": "2015 QA9",
    "nasa_jpl_url": "http://ssd.jpl.nasa.gov/sbdb.cgi?sstr=3726657",
    "absolute_magnitude_h": 25.2,
    "estimated_diameter": {
        "kilometers": {
            "estimated_diameter_min": 0.0242412481,
            "estimated_diameter_max": 0.0542050786
        },
        "meters": {
            "estimated_diameter_min": 24.2412481101,
            "estimated_diameter_max": 54.2050786336
        },
        "miles": {
            "estimated_diameter_min": 0.0150628086,
            "estimated_diameter_max": 0.0336814639
        },
        "feet": {
            "estimated_diameter_min": 79.5316564495,
            "estimated_diameter_max": 177.8381901842
        }
    },
    "is_potentially_hazardous_asteroid": false,
    "close_approach_data": [
        {
            "close_approach_date": "2015-08-20",
            "close_approach_date_full": "2015-Aug-20 05:24",
            "epoch_date_close_approach": 1440048240000,
            "relative_velocity": {
                "kilometers_per_second": "7.5397114973",
                "kilometers_per_hour": "27142.9613903045",
                "miles_per_hour": "16865.5806483256"
            },
            "miss_distance": {
                "astronomical": "0.0376465924",
                "lunar": "14.6445244436",
                "kilometers": "5631850.035798188",
                "miles": "3499469.3396954744"
            },
            "orbiting_body": "Earth"
        },
        {
            "close_approach_date": "2171-06-30",
            "close_approach_date_full": "2171-Jun-30 06:18",
            "epoch_date_close_approach": 6358544280000,
            "relative_velocity": {
                "kilometers_per_second": "19.1409297675",
                "kilometers_per_hour": "68907.3471628506",
                "miles_per_hour": "42816.3457968279"
            },
            "miss_distance": {
                "astronomical": "0.4531902214",
                "lunar": "176.2909961246",
                "kilometers": "67796291.826268418",
                "miles": "42126662.3015554484"
            },
            "orbiting_body": "Earth"
        }
    ],
    "orbital_data": {
        "orbit_id": "9",
        "orbit_determination_date": "2017-04-06 08:32:16",
        "first_observation_date": "2015-08-22",
        "last_observation_date": "2015-09-17",
        "data_arc_in_days": 26,
        "observations_used": 49,
        "orbit_uncertainty": "7",
        "minimum_orbit_intersection": ".0391904",
        "jupiter_tisserand_invariant": "3.258",
        "epoch_osculation": "2459000.5",
        "eccentricity": ".5713367339270075",
        "semi_major_axis": "2.433223434070456",
        "inclination": "3.928087265412089",
        "ascending_node_longitude": "164.8200995368133",
        "orbital_period": "1386.345294037225",
        "perihelion_distance": "1.043033504333984",
        "perihelion_argument": "157.9189112151099",
        "aphelion_distance": "3.823413363806927",
        "perihelion_time": "2458636.068008302029",
        "mean_anomaly": "94.6340840016923",
        "mean_motion": ".2596755667930543",
        "equinox": "J2000",
        "orbit_class": {
            "orbit_class_type": "AMO",
            "orbit_class_description": "Near-Earth asteroid orbits similar to that of 1221 Amor",
            "orbit_class_range": "1.017 AU < q (perihelion) < 1.3 AU"
        }
    },
    "is_sentry_object": false
}